STARS (KUKAI)           
1 33498U 09002G   26068.71826512  .00006351  00000+0  58664-3 0  9998
2 33498  98.1461  12.0831 0009772 130.4363 229.7710 14.94938540923614
STARLINK-34046          
1 64035U 25102P   26068.52844996 -.00008387  00000+0 -69639-3 0  9990
2 64035  70.0013 114.9216 0004035 239.0821 120.9941 14.98301012 45703
