[{"OBJECT_NAME":"STARS (KUKAI)","OBJECT_ID":"2009-002G","EPOCH":"2026-03-09T17:14:18.106368","MEAN_MOTION":14.9493854,"ECCENTRICITY":0.00097723,"INCLINATION":98.1461,"RA_OF_ASC_NODE":12.0831,"ARG_OF_PERICENTER":130.4363,"MEAN_ANOMALY":229.771,"EPHEMERIS_TYPE":0,"CLASSIFICATION_TYPE":"U","NORAD_CAT_ID":33498,"ELEMENT_SET_NO":999,"REV_AT_EPOCH":92361,"BSTAR":0.00058664337,"MEAN_MOTION_DOT":6.351e-5,"MEAN_MOTION_DDOT":0},{"OBJECT_NAME":"STARLINK-34046","OBJECT_ID":"2025-102P","EPOCH":"2026-03-09T12:40:58.076544","MEAN_MOTION":14.98301012,"ECCENTRICITY":0.00040357,"INCLINATION":70.0013,"RA_OF_ASC_NODE":114.9216,"ARG_OF_PERICENTER":239.0821,"MEAN_ANOMALY":120.9941,"EPHEMERIS_TYPE":0,"CLASSIFICATION_TYPE":"U","NORAD_CAT_ID":64035,"ELEMENT_SET_NO":999,"REV_AT_EPOCH":4570,"BSTAR":-0.00069639287,"MEAN_MOTION_DOT":-8.387e-5,"MEAN_MOTION_DDOT":0}]
